[{"OBJECT_NAME":"STARLINK-3207","OBJECT_ID":"2021-115AJ","EPOCH":"2026-03-09T11:43:14.845728","MEAN_MOTION":15.08835744,"ECCENTRICITY":0.00015294,"INCLINATION":53.217,"RA_OF_ASC_NODE":140.0239,"ARG_OF_PERICENTER":103.8178,"MEAN_ANOMALY":256.2985,"EPHEMERIS_TYPE":0,"CLASSIFICATION_TYPE":"U","NORAD_CAT_ID":49756,"ELEMENT_SET_NO":999,"REV_AT_EPOCH":23564,"BSTAR":5.349943e-6,"MEAN_MOTION_DOT":-2.03e-6,"MEAN_MOTION_DDOT":0},{"OBJECT_NAME":"CZ-6A DEB","OBJECT_ID":"2022-151TF","EPOCH":"2026-03-09T20:10:56.828064","MEAN_MOTION":14.824189,"ECCENTRICITY":0.01303169,"INCLINATION":98.7184,"RA_OF_ASC_NODE":180.8188,"ARG_OF_PERICENTER":97.1353,"MEAN_ANOMALY":264.4696,"EPHEMERIS_TYPE":0,"CLASSIFICATION_TYPE":"U","NORAD_CAT_ID":54966,"ELEMENT_SET_NO":999,"REV_AT_EPOCH":17789,"BSTAR":0.0010552869,"MEAN_MOTION_DOT":9.753e-5,"MEAN_MOTION_DDOT":0}]
